{
  "type": "FeatureCollection",
  "features": [
    {
      "type": "Feature",
      "properties": {
        "norad_id": 29850,
        "name": "FENGYUN 1C DEB",
        "group": "fengyun-1c-debris",
        "lat": -37.89488546221623,
        "lon": 81.63047172432245,
        "alt_km": 898.0501636837071,
        "timestamp": "2025-12-06T16:45:42.993644+00:00",
        "meta_object_name": "FENGYUN 1C DEB",
        "meta_object_id": "1999-025EU",
        "meta_epoch": "2025-12-05T17:43:32.163744",
        "meta_mean_motion": 13.99815986,
        "meta_eccentricity": 0.01030402,
        "meta_inclination": 98.1226,
        "meta_ra_of_asc_node": 267.1599,
        "meta_arg_of_pericenter": 309.481,
        "meta_mean_anomaly": 115.6613,
        "meta_ephemeris_type": 0,
        "meta_classification_type": "U",
        "meta_norad_cat_id": 29850,
        "meta_element_set_no": 999,
        "meta_rev_at_epoch": 95922,
        "meta_bstar": 0.0024740334,
        "meta_mean_motion_dot": 3.761e-05,
        "meta_mean_motion_ddot": 0,
        "tle_line1": "1 29850U 99025EU  25339.73856671  .00003761  00000+0  24740-2 0  9999",
        "tle_line2": "2 29850  98.1226 267.1599 0103040 309.4810 115.6613 13.99815986959225"
      },
      "geometry": {
        "type": "Point",
        "coordinates": [
          81.63047172432245,
          -37.89488546221623
        ]
      }
    },
    {
      "type": "Feature",
      "properties": {
        "norad_id": 29851,
        "name": "FENGYUN 1C DEB",
        "group": "fengyun-1c-debris",
        "lat": 22.308027062320445,
        "lon": -154.5176621275166,
        "alt_km": 942.5017967644617,
        "timestamp": "2025-12-06T16:45:42.993654+00:00",
        "meta_object_name": "FENGYUN 1C DEB",
        "meta_object_id": "1999-025EV",
        "meta_epoch": "2025-12-06T02:14:13.373376",
        "meta_mean_motion": 13.83590684,
        "meta_eccentricity": 0.01419232,
        "meta_inclination": 99.585,
        "meta_ra_of_asc_node": 20.8903,
        "meta_arg_of_pericenter": 245.1215,
        "meta_mean_anomaly": 140.8759,
        "meta_ephemeris_type": 0,
        "meta_classification_type": "U",
        "meta_norad_cat_id": 29851,
        "meta_element_set_no": 999,
        "meta_rev_at_epoch": 95275,
        "meta_bstar": 0.00055926619,
        "meta_mean_motion_dot": 6.2e-06,
        "meta_mean_motion_ddot": 0,
        "tle_line1": "1 29851U 99025EV  25340.09321034  .00000620  00000+0  55927-3 0  9994",
        "tle_line2": "2 29851  99.5850  20.8903 0141923 245.1215 140.8759 13.83590684952754"
      },
      "geometry": {
        "type": "Point",
        "coordinates": [
          -154.5176621275166,
          22.308027062320445
        ]
      }
    },
    {
      "type": "Feature",
      "properties": {
        "norad_id": 29852,
        "name": "FENGYUN 1C DEB",
        "group": "fengyun-1c-debris",
        "lat": -22.630254462191758,
        "lon": 166.31809670670003,
        "alt_km": 795.3558026753044,
        "timestamp": "2025-12-06T16:45:42.993665+00:00",
        "meta_object_name": "FENGYUN 1C DEB",
        "meta_object_id": "1999-025EW",
        "meta_epoch": "2025-12-06T07:21:06.163776",
        "meta_mean_motion": 14.07017415,
        "meta_eccentricity": 0.0135193,
        "meta_inclination": 99.3714,
        "meta_ra_of_asc_node": 349.8594,
        "meta_arg_of_pericenter": 167.7172,
        "meta_mean_anomaly": 209.2438,
        "meta_ephemeris_type": 0,
        "meta_classification_type": "U",
        "meta_norad_cat_id": 29852,
        "meta_element_set_no": 999,
        "meta_rev_at_epoch": 95894,
        "meta_bstar": 0.002830477,
        "meta_mean_motion_dot": 5.093e-05,
        "meta_mean_motion_ddot": 0,
        "tle_line1": "1 29852U 99025EW  25340.30632134  .00005093  00000+0  28305-2 0  9993",
        "tle_line2": "2 29852  99.3714 349.8594 0135193 167.7172 209.2438 14.07017415958949"
      },
      "geometry": {
        "type": "Point",
        "coordinates": [
          166.31809670670003,
          -22.630254462191758
        ]
      }
    },
    {
      "type": "Feature",
      "properties": {
        "norad_id": 29853,
        "name": "FENGYUN 1C DEB",
        "group": "fengyun-1c-debris",
        "lat": -72.25504906203733,
        "lon": 130.52186261684005,
        "alt_km": 840.7266441370257,
        "timestamp": "2025-12-06T16:45:42.993675+00:00",
        "meta_object_name": "FENGYUN 1C DEB",
        "meta_object_id": "1999-025EX",
        "meta_epoch": "2025-12-06T06:46:45.326784",
        "meta_mean_motion": 13.93755889,
        "meta_eccentricity": 0.01611376,
        "meta_inclination": 98.4583,
        "meta_ra_of_asc_node": 102.4314,
        "meta_arg_of_pericenter": 240.441,
        "meta_mean_anomaly": 118.0609,
        "meta_ephemeris_type": 0,
        "meta_classification_type": "U",
        "meta_norad_cat_id": 29853,
        "meta_element_set_no": 999,
        "meta_rev_at_epoch": 95579,
        "meta_bstar": 0.0028265554,
        "meta_mean_motion_dot": 4.105e-05,
        "meta_mean_motion_ddot": 0,
        "tle_line1": "1 29853U 99025EX  25340.28246906  .00004105  00000+0  28266-2 0  9998",
        "tle_line2": "2 29853  98.4583 102.4314 0161137 240.4410 118.0609 13.93755889955793"
      },
      "geometry": {
        "type": "Point",
        "coordinates": [
          130.52186261684005,
          -72.25504906203733
        ]
      }
    },
    {
      "type": "Feature",
      "properties": {
        "norad_id": 29854,
        "name": "FENGYUN 1C DEB",
        "group": "fengyun-1c-debris",
        "lat": 40.83236200036659,
        "lon": 134.33152813917306,
        "alt_km": 850.8876800635699,
        "timestamp": "2025-12-06T16:45:42.993685+00:00",
        "meta_object_name": "FENGYUN 1C DEB",
        "meta_object_id": "1999-025EY",
        "meta_epoch": "2025-12-05T22:11:41.334144",
        "meta_mean_motion": 13.8333509,
        "meta_eccentricity": 0.01474958,
        "meta_inclination": 98.9274,
        "meta_ra_of_asc_node": 141.4039,
        "meta_arg_of_pericenter": 69.1331,
        "meta_mean_anomaly": 82.5116,
        "meta_ephemeris_type": 0,
        "meta_classification_type": "U",
        "meta_norad_cat_id": 29854,
        "meta_element_set_no": 999,
        "meta_rev_at_epoch": 95249,
        "meta_bstar": 0.00036993998,
        "meta_mean_motion_dot": 4.02e-06,
        "meta_mean_motion_ddot": 0,
        "tle_line1": "1 29854U 99025EY  25339.92478396  .00000402  00000+0  36994-3 0  9992",
        "tle_line2": "2 29854  98.9274 141.4039 0147495  69.1331  82.5116 13.83335090952491"
      },
      "geometry": {
        "type": "Point",
        "coordinates": [
          134.33152813917306,
          40.83236200036659
        ]
      }
    },
    {
      "type": "Feature",
      "properties": {
        "norad_id": 29855,
        "name": "FENGYUN 1C DEB",
        "group": "fengyun-1c-debris",
        "lat": 6.302739015224524,
        "lon": 103.92875806303817,
        "alt_km": 935.0248761497869,
        "timestamp": "2025-12-06T16:45:42.993695+00:00",
        "meta_object_name": "FENGYUN 1C DEB",
        "meta_object_id": "1999-025EZ",
        "meta_epoch": "2025-12-05T19:38:42.521280",
        "meta_mean_motion": 14.01503818,
        "meta_eccentricity": 0.01840624,
        "meta_inclination": 98.1815,
        "meta_ra_of_asc_node": 282.2286,
        "meta_arg_of_pericenter": 65.626,
        "meta_mean_anomaly": 349.0931,
        "meta_ephemeris_type": 0,
        "meta_classification_type": "U",
        "meta_norad_cat_id": 29855,
        "meta_element_set_no": 999,
        "meta_rev_at_epoch": 95615,
        "meta_bstar": 0.0037258211,
        "meta_mean_motion_dot": 6.497e-05,
        "meta_mean_motion_ddot": 0,
        "tle_line1": "1 29855U 99025EZ  25339.81854770  .00006497  00000+0  37258-2 0  9998",
        "tle_line2": "2 29855  98.1815 282.2286 0184062  65.6260 349.0931 14.01503818956155"
      },
      "geometry": {
        "type": "Point",
        "coordinates": [
          103.92875806303817,
          6.302739015224524
        ]
      }
    },
    {
      "type": "Feature",
      "properties": {
        "norad_id": 29856,
        "name": "FENGYUN 1C DEB",
        "group": "fengyun-1c-debris",
        "lat": 27.9188325001558,
        "lon": -100.86571665253535,
        "alt_km": 912.5038125089468,
        "timestamp": "2025-12-06T16:45:42.993706+00:00",
        "meta_object_name": "FENGYUN 1C DEB",
        "meta_object_id": "1999-025FA",
        "meta_epoch": "2025-12-06T00:17:55.224672",
        "meta_mean_motion": 14.47486794,
        "meta_eccentricity": 0.0263013,
        "meta_inclination": 98.6901,
        "meta_ra_of_asc_node": 73.7804,
        "meta_arg_of_pericenter": 318.2657,
        "meta_mean_anomaly": 221.6653,
        "meta_ephemeris_type": 0,
        "meta_classification_type": "U",
        "meta_norad_cat_id": 29856,
        "meta_element_set_no": 999,
        "meta_rev_at_epoch": 96277,
        "meta_bstar": 0.0032303786,
        "meta_mean_motion_dot": 0.00018349,
        "meta_mean_motion_ddot": 0,
        "tle_line1": "1 29856U 99025FA  25340.01244473  .00018349  00000+0  32304-2 0  9992",
        "tle_line2": "2 29856  98.6901  73.7804 0263013 318.2657 221.6653 14.47486794962771"
      },
      "geometry": {
        "type": "Point",
        "coordinates": [
          -100.86571665253535,
          27.9188325001558
        ]
      }
    }
  ]
}